{
    "categories": [
        {
            "str_id":         "recent",
            "path":           "/api/v1/videos/?start=0&count=30&sort=-publishedAt"
        },
        {
            "str_id":         "trending",
            "path":           "/api/v1/videos/?start=0&count=30&sort=-trending"
        },
        {
            "str_id":         "liked",
            "path":           "/api/v1/videos/?start=0&count=30&sort=-likes"
        },
        {
            "str_id":         "local",
            "path":           "/api/v1/videos/?start=0&count=40&filter=local"
        },
        {
            "str_id":         "discover",
            "path":           "/api/v1/overviews/videos?start=0&count=20"
        }
    ],
    "iso639_1": {
        "aa":{"iso639_2b":"aar","NativeName":"Afaraf"},
        "ab":{"iso639_2b":"abk","NativeName":"аҧсуа бызшәа"},
        "ae":{"iso639_2b":"ave","NativeName":"avesta"},
        "af":{"iso639_2b":"afr","NativeName":"Afrikaans"},
        "ak":{"iso639_2b":"aka","NativeName":"Akan"},
        "am":{"iso639_2b":"amh","NativeName":"አማርኛ"},
        "an":{"iso639_2b":"arg","NativeName":"aragonés"},
        "ar":{"iso639_2b":"ara","NativeName":"العربية"},
        "as":{"iso639_2b":"asm","NativeName":"অসমীয়া"},
        "av":{"iso639_2b":"ava","NativeName":"авар мацӀ"},
        "ay":{"iso639_2b":"aym","NativeName":"aymar aru"},
        "az":{"iso639_2b":"aze","NativeName":"azərbaycan dili"},
        "ba":{"iso639_2b":"bak","NativeName":"башҡорт теле"},
        "be":{"iso639_2b":"bel","NativeName":"беларуская мова"},
        "bg":{"iso639_2b":"bul","NativeName":"български език"},
        "bh":{"iso639_2b":"bih","NativeName":"भोजपुरी"},
        "bi":{"iso639_2b":"bis","NativeName":"Bislama"},
        "bm":{"iso639_2b":"bam","NativeName":"bamanankan"},
        "bn":{"iso639_2b":"ben","NativeName":"বাংলা"},
        "bo":{"iso639_2b":"tib","NativeName":"བོད་ཡིག"},
        "br":{"iso639_2b":"bre","NativeName":"brezhoneg"},
        "bs":{"iso639_2b":"bos","NativeName":"bosanski jezik"},
        "ca":{"iso639_2b":"cat","NativeName":"català"},
        "ce":{"iso639_2b":"che","NativeName":"нохчийн мотт"},
        "ch":{"iso639_2b":"cha","NativeName":"Chamoru"},
        "co":{"iso639_2b":"cos","NativeName":"corsu"},
        "cr":{"iso639_2b":"cre","NativeName":"ᓀᐦᐃᔭᐍᐏᐣ"},
        "cs":{"iso639_2b":"cze","NativeName":"čeština"},
        "cu":{"iso639_2b":"chu","NativeName":"ѩзыкъ словѣньскъ"},
        "cv":{"iso639_2b":"chv","NativeName":"чӑваш чӗлхи"},
        "cy":{"iso639_2b":"wel","NativeName":"Cymraeg"},
        "da":{"iso639_2b":"dan","NativeName":"dansk"},
        "de":{"iso639_2b":"ger","NativeName":"Deutsch"},
        "dv":{"iso639_2b":"div","NativeName":"ދިވެހި"},
        "dz":{"iso639_2b":"dzo","NativeName":"རྫོང་ཁ"},
        "ee":{"iso639_2b":"ewe","NativeName":"Eʋegbe"},
        "el":{"iso639_2b":"gre","NativeName":"ελληνικά"},
        "en":{"iso639_2b":"eng","NativeName":"English"},
        "eo":{"iso639_2b":"epo","NativeName":"Esperanto"},
        "es":{"iso639_2b":"spa","NativeName":"Español"},
        "et":{"iso639_2b":"est","NativeName":"eesti"},
        "eu":{"iso639_2b":"baq","NativeName":"euskara"},
        "fa":{"iso639_2b":"per","NativeName":"فارسی"},
        "ff":{"iso639_2b":"ful","NativeName":"Fulfulde"},
        "fi":{"iso639_2b":"fin","NativeName":"suomi"},
        "fj":{"iso639_2b":"fij","NativeName":"vosa Vakaviti"},
        "fo":{"iso639_2b":"fao","NativeName":"føroyskt"},
        "fr":{"iso639_2b":"fre","NativeName":"français"},
        "fy":{"iso639_2b":"fry","NativeName":"Frysk"},
        "ga":{"iso639_2b":"gle","NativeName":"Gaeilge"},
        "gd":{"iso639_2b":"gla","NativeName":"Gàidhlig"},
        "gl":{"iso639_2b":"glg","NativeName":"Galego"},
        "gn":{"iso639_2b":"grn","NativeName":"Avañe'ẽ"},
        "gu":{"iso639_2b":"guj","NativeName":"ગુજરાતી"},
        "gv":{"iso639_2b":"glv","NativeName":"Gaelg"},
        "ha":{"iso639_2b":"hau","NativeName":"(Hausa) هَوُسَ"},
        "he":{"iso639_2b":"heb","NativeName":"עברית"},
        "hi":{"iso639_2b":"hin","NativeName":"हिन्दी"},
        "ho":{"iso639_2b":"hmo","NativeName":"Hiri Motu"},
        "hr":{"iso639_2b":"hrv","NativeName":"hrvatski jezik"},
        "ht":{"iso639_2b":"hat","NativeName":"Kreyòl ayisyen"},
        "hu":{"iso639_2b":"hun","NativeName":"magyar"},
        "hy":{"iso639_2b":"arm","NativeName":"Հայերեն"},
        "hz":{"iso639_2b":"her","NativeName":"Otjiherero"},
        "ia":{"iso639_2b":"ina","NativeName":"Interlingua"},
        "id":{"iso639_2b":"ind","NativeName":"Bahasa Indonesia"},
        "ie":{"iso639_2b":"ile","NativeName":"Interlingue"},
        "ig":{"iso639_2b":"ibo","NativeName":"Asụsụ Igbo"},
        "ii":{"iso639_2b":"iii","NativeName":"ꆈꌠ꒿ Nuosuhxop"},
        "ik":{"iso639_2b":"ipk","NativeName":"Iñupiaq"},
        "io":{"iso639_2b":"ido","NativeName":"Ido"},
        "is":{"iso639_2b":"ice","NativeName":"Íslenska"},
        "it":{"iso639_2b":"ita","NativeName":"Italiano"},
        "iu":{"iso639_2b":"iku","NativeName":"ᐃᓄᒃᑎᑐᑦ"},
        "ja":{"iso639_2b":"jpn","NativeName":"日本語 (にほんご)"},
        "jv":{"iso639_2b":"jav","NativeName":"ꦧꦱꦗꦮ"},
        "ka":{"iso639_2b":"geo","NativeName":"ქართული"},
        "kg":{"iso639_2b":"kon","NativeName":"Kikongo"},
        "ki":{"iso639_2b":"kik","NativeName":"Gĩkũyũ"},
        "kj":{"iso639_2b":"kua","NativeName":"Kuanyama"},
        "kk":{"iso639_2b":"kaz","NativeName":"қазақ тілі"},
        "kl":{"iso639_2b":"kal","NativeName":"kalaallisut"},
        "km":{"iso639_2b":"khm","NativeName":"ខ្មែរ"},
        "kn":{"iso639_2b":"kan","NativeName":"ಕನ್ನಡ"},
        "ko":{"iso639_2b":"kor","NativeName":"한국어"},
        "kr":{"iso639_2b":"kau","NativeName":"Kanuri"},
        "ks":{"iso639_2b":"kas","NativeName":"कश्मीरी"},
        "ku":{"iso639_2b":"kur","NativeName":"Kurdî"},
        "kv":{"iso639_2b":"kom","NativeName":"коми кыв"},
        "kw":{"iso639_2b":"cor","NativeName":"Kernewek"},
        "ky":{"iso639_2b":"kir","NativeName":"Кыргызча"},
        "la":{"iso639_2b":"lat","NativeName":"latine"},
        "lb":{"iso639_2b":"ltz","NativeName":"Lëtzebuergesch"},
        "lg":{"iso639_2b":"lug","NativeName":"Luganda"},
        "li":{"iso639_2b":"lim","NativeName":"Limburgs"},
        "ln":{"iso639_2b":"lin","NativeName":"Lingála"},
        "lo":{"iso639_2b":"lao","NativeName":"ພາສາລາວ"},
        "lt":{"iso639_2b":"lit","NativeName":"lietuvių kalba"},
        "lu":{"iso639_2b":"lub","NativeName":"Kiluba"},
        "lv":{"iso639_2b":"lav","NativeName":"latviešu valoda"},
        "mg":{"iso639_2b":"mlg","NativeName":"fiteny malagasy"},
        "mh":{"iso639_2b":"mah","NativeName":"Kajin M̧ajeļ"},
        "mi":{"iso639_2b":"mao","NativeName":"te reo Māori"},
        "mk":{"iso639_2b":"mac","NativeName":"македонски јазик"},
        "ml":{"iso639_2b":"mal","NativeName":"മലയാളം"},
        "mn":{"iso639_2b":"mon","NativeName":"Монгол хэл"},
        "mr":{"iso639_2b":"mar","NativeName":"मराठी"},
        "ms":{"iso639_2b":"may","NativeName":"Bahasa Melayu"},
        "mt":{"iso639_2b":"mlt","NativeName":"Malti"},
        "my":{"iso639_2b":"bur","NativeName":"ဗမာစာ"},
        "na":{"iso639_2b":"nau","NativeName":"Dorerin Naoero"},
        "nb":{"iso639_2b":"nob","NativeName":"Norsk Bokmål"},
        "nd":{"iso639_2b":"nde","NativeName":"isiNdebele"},
        "ne":{"iso639_2b":"nep","NativeName":"नेपाली"},
        "ng":{"iso639_2b":"ndo","NativeName":"Owambo"},
        "nl":{"iso639_2b":"dut","NativeName":"Nederlands"},
        "nn":{"iso639_2b":"nno","NativeName":"Norsk Nynorsk"},
        "no":{"iso639_2b":"nor","NativeName":"Norsk"},
        "nr":{"iso639_2b":"nbl","NativeName":"isiNdebele"},
        "nv":{"iso639_2b":"nav","NativeName":"Diné bizaad"},
        "ny":{"iso639_2b":"nya","NativeName":"chiCheŵa"},
        "oc":{"iso639_2b":"oci","NativeName":"occitan"},
        "oj":{"iso639_2b":"oji","NativeName":"ᐊᓂᔑᓈᐯᒧᐎᓐ"},
        "om":{"iso639_2b":"orm","NativeName":"Afaan Oromoo"},
        "or":{"iso639_2b":"ori","NativeName":"ଓଡ଼ିଆ"},
        "os":{"iso639_2b":"oss","NativeName":"ирон æвзаг"},
        "pa":{"iso639_2b":"pan","NativeName":"ਪੰਜਾਬੀ"},
        "pi":{"iso639_2b":"pli","NativeName":"पालि"},
        "pl":{"iso639_2b":"pol","NativeName":"język polski"},
        "ps":{"iso639_2b":"pus","NativeName":"پښتو"},
        "pt":{"iso639_2b":"por","NativeName":"Português"},
        "qu":{"iso639_2b":"que","NativeName":"Runa Simi"},
        "rm":{"iso639_2b":"roh","NativeName":"Rumantsch Grischun"},
        "rn":{"iso639_2b":"run","NativeName":"Ikirundi"},
        "ro":{"iso639_2b":"rum","NativeName":"Română"},
        "ru":{"iso639_2b":"rus","NativeName":"русский"},
        "rw":{"iso639_2b":"kin","NativeName":"Ikinyarwanda"},
        "sa":{"iso639_2b":"san","NativeName":"संस्कृतम्"},
        "sc":{"iso639_2b":"srd","NativeName":"sardu"},
        "sd":{"iso639_2b":"snd","NativeName":"सिन्धी"},
        "se":{"iso639_2b":"sme","NativeName":"Davvisámegiella"},
        "sg":{"iso639_2b":"sag","NativeName":"yângâ tî sängö"},
        "si":{"iso639_2b":"sin","NativeName":"සිංහල"},
        "sk":{"iso639_2b":"slo","NativeName":"Slovenčina"},
        "sl":{"iso639_2b":"slv","NativeName":"Slovenski Jezik"},
        "sm":{"iso639_2b":"smo","NativeName":"gagana fa'a Samoa"},
        "sn":{"iso639_2b":"sna","NativeName":"chiShona"},
        "so":{"iso639_2b":"som","NativeName":"Soomaaliga"},
        "sq":{"iso639_2b":"alb","NativeName":"Shqip"},
        "sr":{"iso639_2b":"srp","NativeName":"српски језик"},
        "ss":{"iso639_2b":"ssw","NativeName":"SiSwati"},
        "st":{"iso639_2b":"sot","NativeName":"Sesotho"},
        "su":{"iso639_2b":"sun","NativeName":"Basa Sunda"},
        "sv":{"iso639_2b":"swe","NativeName":"Svenska"},
        "sw":{"iso639_2b":"swa","NativeName":"Kiswahili"},
        "ta":{"iso639_2b":"tam","NativeName":"தமிழ்"},
        "te":{"iso639_2b":"tel","NativeName":"తెలుగు"},
        "tg":{"iso639_2b":"tgk","NativeName":"тоҷикӣ"},
        "th":{"iso639_2b":"tha","NativeName":"ไทย"},
        "ti":{"iso639_2b":"tir","NativeName":"ትግርኛ"},
        "tk":{"iso639_2b":"tuk","NativeName":"Türkmen"},
        "tl":{"iso639_2b":"tgl","NativeName":"Wikang Tagalog"},
        "tn":{"iso639_2b":"tsn","NativeName":"Setswana"},
        "to":{"iso639_2b":"ton","NativeName":"Faka Tonga"},
        "tr":{"iso639_2b":"tur","NativeName":"Türkçe"},
        "ts":{"iso639_2b":"tso","NativeName":"Xitsonga"},
        "tt":{"iso639_2b":"tat","NativeName":"татар теле"},
        "tw":{"iso639_2b":"twi","NativeName":"Twi"},
        "ty":{"iso639_2b":"tah","NativeName":"Reo Tahiti"},
        "ug":{"iso639_2b":"uig","NativeName":"ئۇيغۇرچە‎"},
        "uk":{"iso639_2b":"ukr","NativeName":"Українська"},
        "ur":{"iso639_2b":"urd","NativeName":"اردو"},
        "uz":{"iso639_2b":"uzb","NativeName":"Oʻzbek"},
        "ve":{"iso639_2b":"ven","NativeName":"Tshivenḓa"},
        "vi":{"iso639_2b":"vie","NativeName":"Tiếng Việt"},
        "vo":{"iso639_2b":"vol","NativeName":"Volapük"},
        "wa":{"iso639_2b":"wln","NativeName":"Walon"},
        "wo":{"iso639_2b":"wol","NativeName":"Wollof"},
        "xh":{"iso639_2b":"xho","NativeName":"isiXhosa"},
        "yi":{"iso639_2b":"yid","NativeName":"ייִדיש"},
        "yo":{"iso639_2b":"yor","NativeName":"Yorùbá"},
        "za":{"iso639_2b":"zha","NativeName":"Saɯ cueŋƅ"},
        "zh":{"iso639_2b":"chi","NativeName":"中文 (Zhōngwén)"},
        "zu":{"iso639_2b":"zul","NativeName":"isiZulu"}
    }
}
